{
  "type": "FeatureCollection",
  "features": [
    {
      "type": "Feature",
      "properties": {
        "norad_id": 30565,
        "name": "FENGYUN 1C DEB",
        "group": "fengyun-1c-debris",
        "lat": -16.140735705122516,
        "lon": -132.216563096064,
        "alt_km": 763.1266946888436,
        "timestamp": "2025-12-21T14:40:48.193768+00:00",
        "meta_object_name": "FENGYUN 1C DEB",
        "meta_object_id": "1999-025ALF",
        "meta_epoch": "2025-12-14T14:17:13.563168",
        "meta_mean_motion": 14.09950974,
        "meta_eccentricity": 0.01431996,
        "meta_inclination": 98.4595,
        "meta_ra_of_asc_node": 218.7147,
        "meta_arg_of_pericenter": 350.7343,
        "meta_mean_anomaly": 38.2595,
        "meta_ephemeris_type": 0,
        "meta_classification_type": "U",
        "meta_norad_cat_id": 30565,
        "meta_element_set_no": 999,
        "meta_rev_at_epoch": 95953,
        "meta_bstar": 0.0017219835,
        "meta_mean_motion_dot": 3.298e-05,
        "meta_mean_motion_ddot": 0,
        "tle_line1": "1 30565U 99025ALF 25348.59529587  .00003298  00000+0  17220-2 0  9991",
        "tle_line2": "2 30565  98.4595 218.7147 0143199 350.7343  38.2595 14.09950974959534"
      },
      "geometry": {
        "type": "Point",
        "coordinates": [
          -132.216563096064,
          -16.140735705122516
        ]
      }
    },
    {
      "type": "Feature",
      "properties": {
        "norad_id": 30566,
        "name": "FENGYUN 1C DEB",
        "group": "fengyun-1c-debris",
        "lat": -20.268560692209086,
        "lon": 47.8258174154114,
        "alt_km": 908.0741046411858,
        "timestamp": "2025-12-21T14:40:48.193778+00:00",
        "meta_object_name": "FENGYUN 1C DEB",
        "meta_object_id": "1999-025ALG",
        "meta_epoch": "2025-12-21T02:59:26.123424",
        "meta_mean_motion": 14.11724102,
        "meta_eccentricity": 0.00684564,
        "meta_inclination": 99.2157,
        "meta_ra_of_asc_node": 43.8886,
        "meta_arg_of_pericenter": 159.0865,
        "meta_mean_anomaly": 226.5228,
        "meta_ephemeris_type": 0,
        "meta_classification_type": "U",
        "meta_norad_cat_id": 30566,
        "meta_element_set_no": 999,
        "meta_rev_at_epoch": 96501,
        "meta_bstar": 0.00090985774,
        "meta_mean_motion_dot": 1.648e-05,
        "meta_mean_motion_ddot": 0,
        "tle_line1": "1 30566U 99025ALG 25355.12460791  .00001648  00000+0  90986-3 0  9998",
        "tle_line2": "2 30566  99.2157  43.8886 0068456 159.0865 226.5228 14.11724102965016"
      },
      "geometry": {
        "type": "Point",
        "coordinates": [
          47.8258174154114,
          -20.268560692209086
        ]
      }
    },
    {
      "type": "Feature",
      "properties": {
        "norad_id": 30567,
        "name": "FENGYUN 1C DEB",
        "group": "fengyun-1c-debris",
        "lat": -27.644428159425704,
        "lon": 161.4250032879946,
        "alt_km": 811.2471868973589,
        "timestamp": "2025-12-21T14:40:48.193788+00:00",
        "meta_object_name": "FENGYUN 1C DEB",
        "meta_object_id": "1999-025ALH",
        "meta_epoch": "2025-12-20T22:37:43.632768",
        "meta_mean_motion": 14.08905582,
        "meta_eccentricity": 0.0109117,
        "meta_inclination": 98.776,
        "meta_ra_of_asc_node": 345.4147,
        "meta_arg_of_pericenter": 166.1245,
        "meta_mean_anomaly": 250.5895,
        "meta_ephemeris_type": 0,
        "meta_classification_type": "U",
        "meta_norad_cat_id": 30567,
        "meta_element_set_no": 999,
        "meta_rev_at_epoch": 96889,
        "meta_bstar": 0.00015671,
        "meta_mean_motion_dot": 2.44e-06,
        "meta_mean_motion_ddot": 0,
        "tle_line1": "1 30567U 99025ALH 25354.94286612  .00000244  00000+0  15671-3 0  9995",
        "tle_line2": "2 30567  98.7760 345.4147 0109117 166.1245 250.5895 14.08905582968898"
      },
      "geometry": {
        "type": "Point",
        "coordinates": [
          161.4250032879946,
          -27.644428159425704
        ]
      }
    },
    {
      "type": "Feature",
      "properties": {
        "norad_id": 30568,
        "name": "FENGYUN 1C DEB",
        "group": "fengyun-1c-debris",
        "lat": 49.64355256914809,
        "lon": -2.9063494062408086,
        "alt_km": 694.7601518843321,
        "timestamp": "2025-12-21T14:40:48.193801+00:00",
        "meta_object_name": "FENGYUN 1C DEB",
        "meta_object_id": "1999-025ALJ",
        "meta_epoch": "2025-12-21T06:39:14.261760",
        "meta_mean_motion": 14.55360885,
        "meta_eccentricity": 0.00159413,
        "meta_inclination": 98.9418,
        "meta_ra_of_asc_node": 166.0582,
        "meta_arg_of_pericenter": 168.8508,
        "meta_mean_anomaly": 9.5909,
        "meta_ephemeris_type": 0,
        "meta_classification_type": "U",
        "meta_norad_cat_id": 30568,
        "meta_element_set_no": 999,
        "meta_rev_at_epoch": 97783,
        "meta_bstar": 0.0024023992,
        "meta_mean_motion_dot": 0.00010406,
        "meta_mean_motion_ddot": 0,
        "tle_line1": "1 30568U 99025ALJ 25355.27724840  .00010406  00000+0  24024-2 0  9995",
        "tle_line2": "2 30568  98.9418 166.0582 0015941 168.8508   9.5909 14.55360885977838"
      },
      "geometry": {
        "type": "Point",
        "coordinates": [
          -2.9063494062408086,
          49.64355256914809
        ]
      }
    },
    {
      "type": "Feature",
      "properties": {
        "norad_id": 30569,
        "name": "FENGYUN 1C DEB",
        "group": "fengyun-1c-debris",
        "lat": 10.78630716715726,
        "lon": 133.59164315914938,
        "alt_km": 646.9513557481414,
        "timestamp": "2025-12-21T14:40:48.193811+00:00",
        "meta_object_name": "FENGYUN 1C DEB",
        "meta_object_id": "1999-025ALK",
        "meta_epoch": "2025-12-20T09:18:18.415296",
        "meta_mean_motion": 14.73970387,
        "meta_eccentricity": 0.00059607,
        "meta_inclination": 98.7376,
        "meta_ra_of_asc_node": 133.9526,
        "meta_arg_of_pericenter": 62.2391,
        "meta_mean_anomaly": 297.9419,
        "meta_ephemeris_type": 0,
        "meta_classification_type": "U",
        "meta_norad_cat_id": 30569,
        "meta_element_set_no": 999,
        "meta_rev_at_epoch": 98319,
        "meta_bstar": 0.0021051309,
        "meta_mean_motion_dot": 0.00013798,
        "meta_mean_motion_ddot": 0,
        "tle_line1": "1 30569U 99025ALK 25354.38771314  .00013798  00000+0  21051-2 0  9999",
        "tle_line2": "2 30569  98.7376 133.9526 0005960  62.2391 297.9419 14.73970387983197"
      },
      "geometry": {
        "type": "Point",
        "coordinates": [
          133.59164315914938,
          10.78630716715726
        ]
      }
    },
    {
      "type": "Feature",
      "properties": {
        "norad_id": 30570,
        "name": "FENGYUN 1C DEB",
        "group": "fengyun-1c-debris",
        "lat": 33.94146422108528,
        "lon": -146.1604573394591,
        "alt_km": 823.0716822121758,
        "timestamp": "2025-12-21T14:40:48.193821+00:00",
        "meta_object_name": "FENGYUN 1C DEB",
        "meta_object_id": "1999-025ALL",
        "meta_epoch": "2025-12-21T00:41:44.233152",
        "meta_mean_motion": 14.14282277,
        "meta_eccentricity": 0.00356538,
        "meta_inclination": 98.7141,
        "meta_ra_of_asc_node": 27.3465,
        "meta_arg_of_pericenter": 188.2345,
        "meta_mean_anomaly": 232.5195,
        "meta_ephemeris_type": 0,
        "meta_classification_type": "U",
        "meta_norad_cat_id": 30570,
        "meta_element_set_no": 999,
        "meta_rev_at_epoch": 97115,
        "meta_bstar": 0.00035308587,
        "meta_mean_motion_dot": 6.35e-06,
        "meta_mean_motion_ddot": 0,
        "tle_line1": "1 30570U 99025ALL 25355.02898418  .00000635  00000+0  35309-3 0  9996",
        "tle_line2": "2 30570  98.7141  27.3465 0035653 188.2345 232.5195 14.14282277971155"
      },
      "geometry": {
        "type": "Point",
        "coordinates": [
          -146.1604573394591,
          33.94146422108528
        ]
      }
    },
    {
      "type": "Feature",
      "properties": {
        "norad_id": 30571,
        "name": "FENGYUN 1C DEB",
        "group": "fengyun-1c-debris",
        "lat": -31.342911715442856,
        "lon": 26.942207597423113,
        "alt_km": 870.6143603379915,
        "timestamp": "2025-12-21T14:40:48.193832+00:00",
        "meta_object_name": "FENGYUN 1C DEB",
        "meta_object_id": "1999-025ALM",
        "meta_epoch": "2025-12-21T01:28:28.886880",
        "meta_mean_motion": 14.10702937,
        "meta_eccentricity": 0.00211508,
        "meta_inclination": 98.7303,
        "meta_ra_of_asc_node": 21.0379,
        "meta_arg_of_pericenter": 209.7004,
        "meta_mean_anomaly": 205.6743,
        "meta_ephemeris_type": 0,
        "meta_classification_type": "U",
        "meta_norad_cat_id": 30571,
        "meta_element_set_no": 999,
        "meta_rev_at_epoch": 97004,
        "meta_bstar": 0.00017672464,
        "meta_mean_motion_dot": 2.74e-06,
        "meta_mean_motion_ddot": 0,
        "tle_line1": "1 30571U 99025ALM 25355.06144545  .00000274  00000+0  17672-3 0  9998",
        "tle_line2": "2 30571  98.7303  21.0379 0021150 209.7004 205.6743 14.10702937970042"
      },
      "geometry": {
        "type": "Point",
        "coordinates": [
          26.942207597423113,
          -31.342911715442856
        ]
      }
    }
  ]
}